NORAD_CAT_ID,OBJECT_NAME,OBJECT_TYPE,EPOCH,MEAN_MOTION,ECCENTRICITY,INCLINATION,RA_OF_ASC_NODE,ARG_OF_PERICENTER,MEAN_ANOMALY,BSTAR,MEAN_MOTION_DOT,MEAN_MOTION_DDOT,TLE_LINE0,TLE_LINE1,TLE_LINE2,SEMIMAJOR_AXIS,PERIOD,APOGEE,PERIGEE,DECAYED
51991.0,STARLINK-3652,PAYLOAD,2022-07-07 11:23:31,15.08840056,0.0001658,53.2202,300.0626,50.269,309.8448,0.00013663,1.887e-05,0.0,0 STARLINK-3652,1 51991U 22025AM  22188.47467339  .00001887  00000-0  13663-3 0  9996,2 51991  53.2202 300.0626 0001658  50.2690 309.8448 15.08840056 19676,6917.88,95.438,540.8919999999998,538.5980000000002,0.0
51991.0,STARLINK-3652,PAYLOAD,2022-07-07 12:58:54,15.0884105,0.0001664,53.2202,299.7653,50.2789,309.835,0.00014233,1.978e-05,0.0,0 STARLINK-3652,1 51991U 22025AM  22188.54091260  .00001978  00000-0  14233-3 0  9995,2 51991  53.2202 299.7653 0001664  50.2789 309.8350 15.08841050 18593,6917.877,95.437,540.893,538.591,0.0
51991.0,STARLINK-3652,PAYLOAD,2022-07-07 22:00:00,15.08859176,0.0001601,53.2186,298.0789,44.7901,197.538,-0.0025927,-0.00041336,0.0,0 STARLINK-3652,1 51991U 22025AM  22188.91667824 -.00041336  00000-0 -25927-2 0  9996,2 51991  53.2186 298.0789 0001601  44.7901 197.5380 15.08859176  1305,6917.821999999999,95.436,540.794,538.5790000000002,0.0
51991.0,STARLINK-3652,PAYLOAD,2022-07-08 12:49:41,15.08850801,0.0001692,53.2203,295.3053,50.2778,309.8363,9.8441e-05,1.279e-05,0.0,0 STARLINK-3652,1 51991U 22025AM  22189.53450298  .00001279  00000-0  98441-4 0  9993,2 51991  53.2203 295.3053 0001692  50.2778 309.8363 15.08850801 19835,6917.847,95.437,540.883,538.5419999999998,0.0
51991.0,STARLINK-3652,PAYLOAD,2022-07-08 22:00:01,15.08914525,0.0001599,53.2183,293.5897,44.8916,232.3783,-0.0046148,-0.00073136,0.0,0 STARLINK-3652,1 51991U 22025AM  22189.91668981 -.00073136  00000-0 -46148-2 0  9993,2 51991  53.2183 293.5897 0001599  44.8916 232.3783 15.08914525  1300,6917.653,95.433,540.624,538.411,0.0
51991.0,STARLINK-3652,PAYLOAD,2022-07-09 04:00:00,15.08789877,0.0001389,53.2184,292.4665,47.0454,148.8188,0.0031833,0.00050669,0.0,0 STARLINK-3652,1 51991U 22025AM  22190.16667824  .00050669  00000-0  31833-2 0  9996,2 51991  53.2184 292.4665 0001389  47.0454 148.8188 15.08789877 19939,6918.034000000002,95.441,540.86,538.938,0.0
51991.0,STARLINK-3652,PAYLOAD,2022-07-09 14:00:01,15.0880994,0.0001592,53.2185,290.598,43.8257,256.4776,0.00010787,1.428e-05,0.0,0 STARLINK-3652,1 51991U 22025AM  22190.58334491  .00001428  00000-0  10787-3 0  9998,2 51991  53.2185 290.5980 0001592  43.8257 256.4776 15.08809940  1305,6917.972,95.439,540.939,538.736,0.0
51991.0,STARLINK-3652,PAYLOAD,2022-07-09 20:00:01,15.08823064,0.0001584,53.2181,289.4755,40.9778,177.9939,-6.9802e-05,-1.398e-05,0.0,0 STARLINK-3652,1 51991U 22025AM  22190.83334491 -.00001398  00000-0 -69802-4 0  9997,2 51991  53.2181 289.4755 0001584  40.9778 177.9939 15.08823064  1306,6917.932,95.439,540.893,538.701,0.0
51991.0,STARLINK-3652,PAYLOAD,2022-07-10 06:00:00,15.08845936,0.0001444,53.2177,287.6021,45.96100000000001,277.4699,0.0029656,0.00047234,0.0,0 STARLINK-3652,1 51991U 22025AM  22191.25001157  .00047234  00000-0  29656-2 0  9992,2 51991  53.2177 287.6021 0001444  45.9610 277.4699 15.08845936 20090,6917.861999999999,95.437,540.726,538.7280000000002,0.0
51991.0,STARLINK-3652,PAYLOAD,2022-07-10 14:00:01,15.08827899,0.0001662,53.2185,286.1091,42.9855,292.0366,0.00047741,7.316e-05,0.0,0 STARLINK-3652,1 51991U 22025AM  22191.58334491  .00007316  00000-0  47741-3 0  9991,2 51991  53.2185 286.1091 0001662  42.9855 292.0366 15.08827899 20148,6917.917,95.438,540.932,538.633,0.0
51991.0,STARLINK-3652,PAYLOAD,2022-07-10 22:00:00,15.08856363,0.0001599,53.2184,284.6119,41.4938,305.1090000000001,-0.0019023,-0.00030449,0.0,0 STARLINK-3652,1 51991U 22025AM  22191.91667824 -.00030449  00000-0 -19023-2 0  9993,2 51991  53.2184 284.6119 0001599  41.4938 305.1090 15.08856363  1301,6917.83,95.437,540.802,538.589,0.0
51991.0,STARLINK-3652,PAYLOAD,2022-07-11 14:00:01,15.08852674,0.0001768,53.2187,281.6203,42.53100000000001,327.2876,0.00044452,6.796e-05,0.0,0 STARLINK-3652,1 51991U 22025AM  22192.58334491  .00006796  00000-0  44452-3 0  9999,2 51991  53.2187 281.6203 0001768  42.5310 327.2876 15.08852674  1307,6917.842,95.437,540.93,538.484,0.0
51991.0,STARLINK-3652,PAYLOAD,2022-07-11 22:00:00,15.08874401,0.0001736,53.2187,280.1229,43.4177,338.0125,-0.0037848,-0.00060078,0.0,0 STARLINK-3652,1 51991U 22025AM  22192.91667824 -.00060078  00000-0 -37848-2 0  9990,2 51991  53.2187 280.1229 0001736  43.4177 338.0125 15.08874401 20349,6917.775,95.435,540.841,538.439,0.0
51991.0,STARLINK-3652,PAYLOAD,2022-07-12 14:00:01,15.08864818,0.0001879,53.219,277.1315,43.1123,1.5457,-0.0014053,-0.00022599,0.0,0 STARLINK-3652,1 51991U 22025AM  22193.58334491 -.00022599  00000-0 -14053-2 0  9994,2 51991  53.2190 277.1315 0001879  43.1123   1.5457 15.08864818  1307,6917.805,95.436,540.969,538.37,0.0
51991.0,STARLINK-3652,PAYLOAD,2022-07-12 22:00:00,15.08863954,0.0001754999999999,53.219,275.634,42.3194,13.9622,-0.0012039,-0.0001941,0.0,0 STARLINK-3652,1 51991U 22025AM  22193.91667824 -.00019410  00000-0 -12039-2 0  9990,2 51991  53.2190 275.6340 0001755  42.3194  13.9622 15.08863954  1301,6917.807,95.436,540.886,538.4580000000002,0.0
51991.0,STARLINK-3652,PAYLOAD,2022-07-13 04:00:00,15.08851127,0.0001665,53.2191,274.511,46.8342,288.1595,-0.00027977,-4.739e-05,0.0,0 STARLINK-3652,1 51991U 22025AM  22194.16667824 -.00004739  00000-0 -27977-3 0  9994,2 51991  53.2191 274.5110 0001665  46.8342 288.1595 15.08851127 20539,6917.846,95.437,540.863,538.56,0.0
51991.0,STARLINK-3652,PAYLOAD,2022-07-13 14:00:01,15.08803723,0.0001853,53.219,272.6427,41.4095,38.0938,0.0014263,0.00022462,0.0,0 STARLINK-3652,1 51991U 22025AM  22194.58334491  .00022462  00000-0  14263-2 0  9995,2 51991  53.2190 272.6427 0001853  41.4095  38.0938 15.08803723  1309,6917.991,95.44,541.138,538.5740000000002,0.0
51991.0,STARLINK-3652,PAYLOAD,2022-07-13 22:00:00,15.08842162,0.0001695,53.2189,271.1453,41.0794,49.98,-0.0036657,-0.00058161,0.0,0 STARLINK-3652,1 51991U 22025AM  22194.91667824 -.00058161  00000-0 -36657-2 0  9999,2 51991  53.2189 271.1453 0001695  41.0794  49.9800 15.08842162 20643,6917.874,95.437,540.911,538.566,0.0
51991.0,STARLINK-3652,PAYLOAD,2022-07-14 14:00:01,15.08790993,0.0001774999999999,53.2186,268.1543,37.8631,76.3208,0.0018739,0.00029621,0.0,0 STARLINK-3652,1 51991U 22025AM  22195.58334491  .00029621  00000-0  18739-2 0  9992,2 51991  53.2186 268.1543 0001775  37.8631  76.3208 15.08790993 20750,6918.03,95.441,541.123,538.6669999999998,0.0
51991.0,STARLINK-3652,PAYLOAD,2022-07-14 22:00:00,15.08820702,0.0001626,53.2183,266.6568,40.0518,85.6837,-0.00077679,-0.00012623,0.0,0 STARLINK-3652,1 51991U 22025AM  22195.91667824 -.00012623  00000-0 -77679-3 0  9993,2 51991  53.2183 266.6568 0001626  40.0518  85.6837 15.08820702  1305,6917.939,95.439,540.929,538.68,0.0
51991.0,STARLINK-3652,PAYLOAD,2022-07-15 14:00:01,15.0880816,0.0001778,53.2179,263.6657,37.8107,111.0699,0.0023445,0.0003719,0.0,0 STARLINK-3652,1 51991U 22025AM  22196.58334491  .00037190  00000-0  23445-2 0  9993,2 51991  53.2179 263.6657 0001778  37.8107 111.0699 15.08808160 20903,6917.978,95.44,541.073,538.613,0.0
51991.0,STARLINK-3652,PAYLOAD,2022-07-15 22:00:00,15.08837795,0.0001618,53.2175,262.168,40.7849,119.6732,-0.0003129,-5.264e-05,0.0,0 STARLINK-3652,1 51991U 22025AM  22196.91667824 -.00005264  00000-0 -31290-3 0  9996,2 51991  53.2175 262.1680 0001618  40.7849 119.6732 15.08837795  1309,6917.887,95.438,540.871,538.633,0.0
51991.0,STARLINK-3652,PAYLOAD,2022-07-16 14:00:01,15.08825895,0.0001805,53.2172,259.1768,38.2986,145.35399999999996,0.0028197,0.00044856,0.0,0 STARLINK-3652,1 51991U 22025AM  22197.58334491  .00044856  00000-0  28197-2 0  9990,2 51991  53.2172 259.1768 0001805  38.2986 145.3540 15.08825895 21056,6917.924,95.438,541.0369999999998,538.54,0.0
51991.0,STARLINK-3652,PAYLOAD,2022-07-16 22:00:00,15.08857005,0.0001648,53.2169,257.6787,41.5636,153.6952,0.00027636,4.115e-05,0.0,0 STARLINK-3652,1 51991U 22025AM  22197.91667824  .00004115  00000-0  27636-3 0  9998,2 51991  53.2169 257.6787 0001648  41.5636 153.6952 15.08857005  1303,6917.828,95.436,540.8330000000002,538.553,0.0
51991.0,STARLINK-3652,PAYLOAD,2022-07-17 14:00:01,15.08834262,0.0001908,53.2176,254.6835,35.8118,182.6922,0.0003241,4.873e-05,0.0,0 STARLINK-3652,1 51991U 22025AM  22198.58334491  .00004873  00000-0  32410-3 0  9990,2 51991  53.2176 254.6835 0001908  35.8118 182.6922 15.08834262 21202,6917.898,95.438,541.0830000000002,538.443,0.0
51991.0,STARLINK-3652,PAYLOAD,2022-07-17 22:00:00,15.08840663,0.0001631999999999,53.2167,253.1893,38.4616,191.6274,0.00052812,8.127e-05,0.0,0 STARLINK-3652,1 51991U 22025AM  22198.91667824  .00008127  00000-0  52812-3 0  9990,2 51991  53.2167 253.1893 0001632  38.4616 191.6274 15.08840663  1307,6917.878000000002,95.438,540.872,538.614,0.0
51991.0,STARLINK-3652,PAYLOAD,2022-07-18 14:00:01,15.088424599999998,0.00019,53.2168,250.1981,36.8976,216.4079,0.0012655,0.00019911,0.0,0 STARLINK-3652,1 51991U 22025AM  22199.58334491  .00019911  00000-0  12655-2 0  9998,2 51991  53.2168 250.1981 0001900  36.8976 216.4079 15.08842460  1308,6917.873000000001,95.437,541.052,538.423,0.0
51991.0,STARLINK-3652,PAYLOAD,2022-07-18 22:00:00,15.08827661,0.0001789,53.217,248.6998,41.3413,223.5815,0.00069427,0.00010775,0.0,0 STARLINK-3652,1 51991U 22025AM  22199.91667824  .00010775  00000-0  69427-3 0  9993,2 51991  53.2170 248.6998 0001789  41.3413 223.5815 15.08827661 21409,6917.918000000002,95.438,541.021,538.545,0.0
51991.0,STARLINK-3652,PAYLOAD,2022-07-19 14:00:01,15.08796536,0.0001974,53.2172,245.7087,36.4388,251.6671,0.0031136,0.00049555,0.0,0 STARLINK-3652,1 51991U 22025AM  22200.58334491  .00049555  00000-0  31136-2 0  9993,2 51991  53.2172 245.7087 0001974  36.4388 251.6671 15.08796536  1305,6918.013000000001,95.44,541.244,538.513,0.0
